OBJECT_NAME,OBJECT_ID,EPOCH,MEAN_MOTION,ECCENTRICITY,INCLINATION,RA_OF_ASC_NODE,ARG_OF_PERICENTER,MEAN_ANOMALY,EPHEMERIS_TYPE,CLASSIFICATION_TYPE,NORAD_CAT_ID,ELEMENT_SET_NO,REV_AT_EPOCH,BSTAR,MEAN_MOTION_DOT,MEAN_MOTION_DDOT
SES-2,2011-049A,2026-07-14T19:50:53.174112,1.00270325,.0002701,0.1271,91.0889,22.8992,29.4084,0,U,37809,999,5424,0,-.204E-5,0
ARABSAT-5C,2011-049B,2026-07-14T20:06:32.475168,1.00271297,.00035302,0.0500,19.7461,109.9172,124.6475,0,U,37810,999,5431,0,.115E-5,0
EUTELSAT 7 WEST A,2011-051A,2026-07-14T21:57:38.693952,1.00270809,.00045899,0.0622,347.4049,140.4837,126.9637,0,U,37816,999,5415,0,-.69E-6,0
QUETZSAT 1,2011-054A,2026-07-14T13:03:01.468800,1.00271266,.0002562,0.0102,33.1578,89.4197,288.5918,0,U,37826,999,5014,0,-.249E-5,0
INTELSAT 18 (IS-18),2011-056A,2026-07-14T19:24:18.222336,1.00269884,.00017269,0.0191,44.2167,78.9199,280.6096,0,U,37834,999,5408,0,0,0
EUTELSAT 16A,2011-057A,2026-07-14T20:01:42.687840,1.00273727,.00058045,0.0397,19.3562,91.1376,138.6277,0,U,37836,999,761,0,.96E-6,0
VIASAT-1,2011-059A,2026-07-14T22:51:00.245952,1.00268460,.0002267,0.0255,54.2640,60.3685,45.8174,0,U,37843,999,4760,0,0,0
ASIASAT 7,2011-069A,2026-07-13T13:57:56.269728,1.00272720,.00012062,0.0149,47.6580,34.5800,164.2101,0,U,37933,999,4512,0,-.338E-5,0
BEIDOU-2 IGSO-5,2011-073A,2026-07-02T17:30:18.330912,1.00270596,.01145273,47.6496,271.3544,222.0502,141.5350,0,U,37948,999,5329,0,-.128E-5,0
LUCH-5A,2011-074B,2026-07-14T15:06:55.243584,1.00272985,.00026034,8.8213,73.4026,60.6892,192.1111,0,U,37951,999,5332,0,-.63E-6,0
NIGCOMSAT 1R,2011-077A,2026-07-14T20:58:38.589600,1.00270556,.00025814,0.0276,114.8934,233.5438,301.4330,0,U,38014,999,5323,0,.136E-5,0
WGS F4 (USA 233),2012-003A,2026-07-14T20:00:38.649024,1.00269217,.00005572,0.0180,57.4616,104.4136,159.3862,0,U,38070,999,4442,0,-.223E-5,0
SES-4,2012-007A,2026-07-14T18:26:47.020992,1.00269577,.00024715,0.0203,44.6058,71.4617,71.2504,0,U,38087,999,5250,0,-.177E-5,0
BEIDOU-2 G5,2012-008A,2026-07-14T23:54:52.492032,1.00270167,.00073186,3.6402,69.5130,268.6935,12.0230,0,U,38091,999,5264,0,.46E-6,0
MUOS-1,2012-009A,2026-07-14T16:21:51.483168,1.00271820,.00569082,5.5304,47.1170,3.4504,27.4871,0,U,38093,999,5272,0,-.139E-5,0
INTELSAT 22 (IS-22),2012-011A,2026-07-14T22:17:21.643872,1.00272373,.00018589,0.0112,37.7064,85.7581,215.7544,0,U,38098,999,746,0,-.67E-6,0
APSTAR-7,2012-013A,2026-07-14T21:54:26.536896,1.00271014,.00029379,0.0195,85.7094,39.5703,212.6006,0,U,38107,999,5208,0,-.11E-5,0
YAHSAT 1B,2012-016A,2026-07-13T01:42:49.313376,1.00273295,.00034999,0.0884,88.7099,45.3416,230.2049,0,U,38245,999,4586,0,.124E-5,0
AEHF-2 (USA 235),2012-019A,2026-07-14T09:55:02.132832,1.00272297,.00022045,6.7114,57.2820,56.9417,310.3205,0,U,38254,999,726,0,-.146E-5,0
JCSAT-13,2012-023A,2026-07-14T20:23:38.505408,1.00267899,.00024905,0.0253,48.0047,75.0655,239.5668,0,U,38331,999,5181,0,0,0
VINASAT-2,2012-023B,2026-07-13T13:49:39.213120,1.00271094,.0002108,0.0130,0.7994,114.6059,155.3055,0,U,38332,999,4692,0,-.333E-5,0
NIMIQ 6,2012-026A,2026-07-14T12:59:01.853088,1.00271248,.00026109,0.0737,265.9014,214.2252,275.9306,0,U,38342,999,5068,0,-.181E-5,0
ZHONGXING-2A,2012-028A,2026-07-14T19:01:05.447424,1.00270675,.00014041,1.5229,83.5132,38.6169,194.0463,0,U,38352,999,5157,0,-.302E-5,0
INTELSAT 19 (IS-19),2012-030A,2026-07-14T19:20:18.604896,1.00271313,.00031962,0.0061,346.1229,142.5973,260.0123,0,U,38356,999,5072,0,-.65E-6,0
ECHOSTAR 17,2012-035A,2026-07-13T07:29:52.916064,1.00271168,.0002068,0.0038,99.8957,10.3898,186.2739,0,U,38551,999,5132,0,-.78E-6,0
METEOSAT-10 (MSG-3),2012-035B,2026-07-14T18:33:02.071296,1.00270718,.00011304,4.7350,60.8824,16.5114,133.5417,0,U,38552,999,5113,0,-.18E-6,0
SES-5,2012-036A,2026-07-14T18:34:24.439872,1.00271395,.00018938,0.0471,318.8452,154.3989,102.9647,0,U,38652,999,4473,0,.25E-6,0
INTELSAT 20 (IS-20),2012-043A,2026-07-14T22:22:21.420768,1.00270903,.00012098,0.0122,64.5315,111.7446,160.5980,0,U,38740,999,5102,0,-.33E-6,0
HYLAS 2,2012-043B,2026-07-14T13:04:16.349952,1.00270549,.0002387,2.4957,80.7343,57.2679,277.8900,0,U,38741,999,5104,0,-.267E-5,0
INTELSAT 21 (IS-21),2012-045A,2026-07-14T04:34:21.273600,1.00263192,.00012787,0.0563,254.8538,255.5602,152.2105,0,U,38749,999,5079,0,-.291E-5,0
ASTRA 2F,2012-051A,2026-07-14T22:35:10.256352,1.00269057,.00028991,0.0904,256.2530,287.6760,115.8223,0,U,38778,999,4141,0,.141E-5,0
GSAT-10,2012-051B,2026-07-14T18:56:43.365984,1.00272864,.00073753,0.0928,264.7727,189.3721,205.6648,0,U,38779,999,5037,0,-.173E-5,0
