SES-2                   
1 37809U 11049A   26195.82700433 -.00000204  00000+0  00000+0 0  9997
2 37809   0.1271  91.0889 0002701  22.8992  29.4084  1.00270325 54249
ARABSAT-5C              
1 37810U 11049B   26195.83787587  .00000115  00000+0  00000+0 0  9995
2 37810   0.0500  19.7461 0003530 109.9172 124.6475  1.00271297 54315
EUTELSAT 7 WEST A       
1 37816U 11051A   26195.91503118 -.00000069  00000+0  00000+0 0  9998
2 37816   0.0622 347.4049 0004589 140.4837 126.9637  1.00270809 54157
QUETZSAT 1              
1 37826U 11054A   26195.54376700 -.00000249  00000+0  00000+0 0  9996
2 37826   0.0102  33.1578 0002562  89.4197 288.5918  1.00271266 50147
INTELSAT 18 (IS-18)     
1 37834U 11056A   26195.80854424  .00000000  00000+0  00000+0 0  9994
2 37834   0.0191  44.2167 0001726  78.9199 280.6096  1.00269884 54087
EUTELSAT 16A            
1 37836U 11057A   26195.83452185  .00000096  00000+0  00000+0 0  9993
2 37836   0.0397  19.3562 0005804  91.1376 138.6277  1.00273727  7615
VIASAT-1                
1 37843U 11059A   26195.95208618  .00000000  00000+0  00000+0 0  9991
2 37843   0.0255  54.2640 0002267  60.3685  45.8174  1.00268460 47608
ASIASAT 7               
1 37933U 11069A   26194.58190127 -.00000338  00000+0  00000+0 0  9990
2 37933   0.0149  47.6580 0001206  34.5800 164.2101  1.00272720 45128
BEIDOU-2 IGSO-5         
1 37948U 11073A   26183.72937883 -.00000128  00000+0  00000+0 0  9990
2 37948  47.6496 271.3544 0114527 222.0502 141.5350  1.00270596 53296
LUCH-5A                 
1 37951U 11074B   26195.62980606 -.00000063  00000+0  00000+0 0  9996
2 37951   8.8213  73.4026 0002603  60.6892 192.1111  1.00272985 53326
NIGCOMSAT 1R            
1 38014U 11077A   26195.87405775  .00000136  00000+0  00000+0 0  9996
2 38014   0.0276 114.8934 0002581 233.5438 301.4330  1.00270556 53230
WGS F4 (USA 233)        
1 38070U 12003A   26195.83378066 -.00000223  00000+0  00000+0 0  9994
2 38070   0.0180  57.4616 0000557 104.4136 159.3862  1.00269217 44420
SES-4                   
1 38087U 12007A   26195.76859978 -.00000177  00000+0  00000+0 0  9992
2 38087   0.0203  44.6058 0002471  71.4617  71.2504  1.00269577 52508
BEIDOU-2 G5             
1 38091U 12008A   26195.99644088  .00000046  00000+0  00000+0 0  9991
2 38091   3.6402  69.5130 0007318 268.6935  12.0230  1.00270167 52649
MUOS-1                  
1 38093U 12009A   26195.68184587 -.00000139  00000+0  00000+0 0  9997
2 38093   5.5304  47.1170 0056908   3.4504  27.4871  1.00271820 52722
INTELSAT 22 (IS-22)     
1 38098U 12011A   26195.92872273 -.00000067  00000+0  00000+0 0  9998
2 38098   0.0112  37.7064 0001858  85.7581 215.7544  1.00272373  7467
APSTAR-7                
1 38107U 12013A   26195.91280714 -.00000110  00000+0  00000+0 0  9992
2 38107   0.0195  85.7094 0002937  39.5703 212.6006  1.00271014 52085
YAHSAT 1B               
1 38245U 12016A   26194.07140409  .00000124  00000+0  00000+0 0  9994
2 38245   0.0884  88.7099 0003499  45.3416 230.2049  1.00273295 45865
AEHF-2 (USA 235)        
1 38254U 12019A   26195.41321913 -.00000146  00000+0  00000+0 0  9992
2 38254   6.7114  57.2820 0002204  56.9417 310.3205  1.00272297  7266
JCSAT-13                
1 38331U 12023A   26195.84975122  .00000000  00000+0  00000+0 0  9995
2 38331   0.0253  48.0047 0002490  75.0655 239.5668  1.00267899 51812
VINASAT-2               
1 38332U 12023B   26194.57614830 -.00000333  00000+0  00000+0 0  9991
2 38332   0.0130   0.7994 0002108 114.6059 155.3055  1.00271094 46920
NIMIQ 6                 
1 38342U 12026A   26195.54099367 -.00000181  00000+0  00000+0 0  9996
2 38342   0.0737 265.9014 0002610 214.2252 275.9306  1.00271248 50689
ZHONGXING-2A            
1 38352U 12028A   26195.79242416 -.00000302  00000+0  00000+0 0  9996
2 38352   1.5229  83.5132 0001404  38.6169 194.0463  1.00270675 51579
INTELSAT 19 (IS-19)     
1 38356U 12030A   26195.80577089 -.00000065  00000+0  00000+0 0  9998
2 38356   0.0061 346.1229 0003196 142.5973 260.0123  1.00271313 50727
ECHOSTAR 17             
1 38551U 12035A   26194.31241801 -.00000078  00000+0  00000+0 0  9999
2 38551   0.0038  99.8957 0002068  10.3898 186.2739  1.00271168 51320
METEOSAT-10 (MSG-3)     
1 38552U 12035B   26195.77294064 -.00000018  00000+0  00000+0 0  9994
2 38552   4.7350  60.8824 0001130  16.5114 133.5417  1.00270718 51135
SES-5                   
1 38652U 12036A   26195.77389398  .00000025  00000+0  00000+0 0  9998
2 38652   0.0471 318.8452 0001893 154.3989 102.9647  1.00271395 44734
INTELSAT 20 (IS-20)     
1 38740U 12043A   26195.93219237 -.00000033  00000+0  00000+0 0  9996
2 38740   0.0122  64.5315 0001209 111.7446 160.5980  1.00270903 51028
HYLAS 2                 
1 38741U 12043B   26195.54463368 -.00000267  00000+0  00000+0 0  9999
2 38741   2.4957  80.7343 0002387  57.2679 277.8900  1.00270549 51044
INTELSAT 21 (IS-21)     
1 38749U 12045A   26195.19052400 -.00000291  00000+0  00000+0 0  9998
2 38749   0.0563 254.8538 0001278 255.5602 152.2105  1.00263192 50796
ASTRA 2F                
1 38778U 12051A   26195.94109093  .00000141  00000+0  00000+0 0  9994
2 38778   0.0904 256.2530 0002899 287.6760 115.8223  1.00269057 41417
GSAT-10                 
1 38779U 12051B   26195.78939081 -.00000173  00000+0  00000+0 0  9991
2 38779   0.0928 264.7727 0007375 189.3721 205.6648  1.00272864 50379
